IRIDIUM 166             
1 43570U 18061B   25034.58966326  .00000026  00000+0  22273-5 0  9992
2 43570  86.3933 265.0709 0002448  85.6495 274.4980 14.34212366341933
IRIDIUM 158             
1 43571U 18061C   25034.62769998  .00000546  00000+0  18804-3 0  9994
2 43571  86.3934 265.0647 0002121  93.5331 266.6107 14.34224279341908
IRIDIUM 165             
1 43572U 18061D   25034.58331546  .00000318  00000+0  10650-3 0  9992
2 43572  86.3936 265.1198 0002185  81.2116 278.9327 14.34218191341926
IRIDIUM 155             
1 43573U 18061E   25034.61502701  .00000539  00000+0  18538-3 0  9998
2 43573  86.3929 265.0005 0002267  93.2054 266.9401 14.34219146341897
IRIDIUM 154             
1 43574U 18061F   25034.59600113  .00000507  00000+0  17386-3 0  9997
2 43574  86.3932 265.1173 0002073  83.7679 276.3753 14.34217351341948
IRIDIUM 163             
1 43575U 18061G   25034.57697263  .00000463  00000+0  15829-3 0  9999
2 43575  86.3932 265.0562 0001984  88.6400 271.5023 14.34218453341914
IRIDIUM 156             
1 43576U 18061H   25034.62135068  .00000536  00000+0  18445-3 0  9994
2 43576  86.3932 265.0447 0002391  92.1964 267.9506 14.34225770341910
IRIDIUM 164             
1 43577U 18061J   25034.60232936  .00000537  00000+0  18465-3 0  9998
2 43577  86.3932 265.0849 0002053  79.4510 280.6917 14.34224157341957
